[{"OBJECT_NAME":"STARLINK-32273","OBJECT_ID":"2024-209T","EPOCH":"2025-08-26T13:26:13.945632","MEAN_MOTION":15.30198893,"ECCENTRICITY":0.00012947,"INCLINATION":53.1595,"RA_OF_ASC_NODE":328.6188,"ARG_OF_PERICENTER":108.6793,"MEAN_ANOMALY":251.4348,"EPHEMERIS_TYPE":0,"CLASSIFICATION_TYPE":"U","NORAD_CAT_ID":61956,"ELEMENT_SET_NO":999,"REV_AT_EPOCH":4502,"BSTAR":0.00078126372,"MEAN_MOTION_DOT":0.0002285,"MEAN_MOTION_DDOT":0},{"OBJECT_NAME":"STARLINK-32359","OBJECT_ID":"2024-209U","EPOCH":"2025-08-26T12:21:03.269088","MEAN_MOTION":15.30210024,"ECCENTRICITY":0.00014751,"INCLINATION":53.1617,"RA_OF_ASC_NODE":329.0489,"ARG_OF_PERICENTER":82.6634,"MEAN_ANOMALY":277.4534,"EPHEMERIS_TYPE":0,"CLASSIFICATION_TYPE":"U","NORAD_CAT_ID":61957,"ELEMENT_SET_NO":999,"REV_AT_EPOCH":4503,"BSTAR":0.00058019588,"MEAN_MOTION_DOT":0.00016869,"MEAN_MOTION_DDOT":0},{"OBJECT_NAME":"STARLINK-32566","OBJECT_ID":"2024-209V","EPOCH":"2025-08-26T11:47:37.290048","MEAN_MOTION":15.30210693,"ECCENTRICITY":9.01e-5,"INCLINATION":53.1586,"RA_OF_ASC_NODE":328.9065,"ARG_OF_PERICENTER":97.1471,"MEAN_ANOMALY":262.9632,"EPHEMERIS_TYPE":0,"CLASSIFICATION_TYPE":"U","NORAD_CAT_ID":61958,"ELEMENT_SET_NO":999,"REV_AT_EPOCH":4503,"BSTAR":0.00085223889,"MEAN_MOTION_DOT":0.00024975,"MEAN_MOTION_DDOT":0},{"OBJECT_NAME":"STARLINK-32499","OBJECT_ID":"2024-210A","EPOCH":"2025-08-26T23:05:55.495104","MEAN_MOTION":15.27598677,"ECCENTRICITY":0.00019004,"INCLINATION":43.0037,"RA_OF_ASC_NODE":199.1428,"ARG_OF_PERICENTER":280.1692,"MEAN_ANOMALY":79.8945,"EPHEMERIS_TYPE":0,"CLASSIFICATION_TYPE":"U","NORAD_CAT_ID":61959,"ELEMENT_SET_NO":999,"REV_AT_EPOCH":4514,"BSTAR":0.00089841833,"MEAN_MOTION_DOT":0.00024557,"MEAN_MOTION_DDOT":0},{"OBJECT_NAME":"STARLINK-32372","OBJECT_ID":"2024-210B","EPOCH":"2025-08-26T21:42:51.979392","MEAN_MOTION":15.27602254,"ECCENTRICITY":8.243e-5,"INCLINATION":42.9986,"RA_OF_ASC_NODE":199.5661,"ARG_OF_PERICENTER":277.3841,"MEAN_ANOMALY":82.6916,"EPHEMERIS_TYPE":0,"CLASSIFICATION_TYPE":"U","NORAD_CAT_ID":61960,"ELEMENT_SET_NO":999,"REV_AT_EPOCH":4499,"BSTAR":0.0011358685,"MEAN_MOTION_DOT":0.00031148,"MEAN_MOTION_DDOT":0},{"OBJECT_NAME":"STARLINK-32452","OBJECT_ID":"2024-210C","EPOCH":"2025-08-26T21:57:12.879360","MEAN_MOTION":15.2759791,"ECCENTRICITY":4.117e-5,"INCLINATION":43.0028,"RA_OF_ASC_NODE":192.7195,"ARG_OF_PERICENTER":21.6759,"MEAN_ANOMALY":338.411,"EPHEMERIS_TYPE":0,"CLASSIFICATION_TYPE":"U","NORAD_CAT_ID":61961,"ELEMENT_SET_NO":999,"REV_AT_EPOCH":4520,"BSTAR":0.0010156429,"MEAN_MOTION_DOT":0.00027807,"MEAN_MOTION_DDOT":0},{"OBJECT_NAME":"STARLINK-32458","OBJECT_ID":"2024-210D","EPOCH":"2025-08-26T05:40:02.085600","MEAN_MOTION":15.27601286,"ECCENTRICITY":0.00013404,"INCLINATION":43.0011,"RA_OF_ASC_NODE":189.299,"ARG_OF_PERICENTER":272.6749,"MEAN_ANOMALY":87.3949,"EPHEMERIS_TYPE":0,"CLASSIFICATION_TYPE":"U","NORAD_CAT_ID":61962,"ELEMENT_SET_NO":999,"REV_AT_EPOCH":4518,"BSTAR":0.0011864011,"MEAN_MOTION_DOT":0.0003255,"MEAN_MOTION_DDOT":0},{"OBJECT_NAME":"STARLINK-32487","OBJECT_ID":"2024-210E","EPOCH":"2025-08-26T22:25:23.855232","MEAN_MOTION":15.2762247,"ECCENTRICITY":0.00012829,"INCLINATION":43.0019,"RA_OF_ASC_NODE":199.7818,"ARG_OF_PERICENTER":255.8802,"MEAN_ANOMALY":104.1907,"EPHEMERIS_TYPE":0,"CLASSIFICATION_TYPE":"U","NORAD_CAT_ID":61963,"ELEMENT_SET_NO":999,"REV_AT_EPOCH":4512,"BSTAR":0.00018818156,"MEAN_MOTION_DOT":4.926e-5,"MEAN_MOTION_DDOT":0},{"OBJECT_NAME":"STARLINK-32513","OBJECT_ID":"2024-210F","EPOCH":"2025-08-26T21:04:56.801280","MEAN_MOTION":15.27592671,"ECCENTRICITY":8.462e-5,"INCLINATION":42.997,"RA_OF_ASC_NODE":185.5198,"ARG_OF_PERICENTER":263.876,"MEAN_ANOMALY":96.1995,"EPHEMERIS_TYPE":0,"CLASSIFICATION_TYPE":"U","NORAD_CAT_ID":61964,"ELEMENT_SET_NO":999,"REV_AT_EPOCH":4528,"BSTAR":0.00073412133,"MEAN_MOTION_DOT":0.00020002,"MEAN_MOTION_DDOT":0},{"OBJECT_NAME":"STARLINK-32514","OBJECT_ID":"2024-210G","EPOCH":"2025-08-26T22:02:46.036032","MEAN_MOTION":15.27592765,"ECCENTRICITY":4.026e-5,"INCLINATION":43.0023,"RA_OF_ASC_NODE":192.7475,"ARG_OF_PERICENTER":266.8617,"MEAN_ANOMALY":93.2188,"EPHEMERIS_TYPE":0,"CLASSIFICATION_TYPE":"U","NORAD_CAT_ID":61965,"ELEMENT_SET_NO":999,"REV_AT_EPOCH":4520,"BSTAR":0.0011552532,"MEAN_MOTION_DOT":0.00031677,"MEAN_MOTION_DDOT":0},{"OBJECT_NAME":"STARLINK-32498","OBJECT_ID":"2024-210H","EPOCH":"2025-08-26T20:44:35.551968","MEAN_MOTION":15.27598367,"ECCENTRICITY":4.63e-5,"INCLINATION":42.9991,"RA_OF_ASC_NODE":185.4128,"ARG_OF_PERICENTER":220.6304,"MEAN_ANOMALY":139.4513,"EPHEMERIS_TYPE":0,"CLASSIFICATION_TYPE":"U","NORAD_CAT_ID":61966,"ELEMENT_SET_NO":999,"REV_AT_EPOCH":4528,"BSTAR":0.0010026466,"MEAN_MOTION_DOT":0.00027447,"MEAN_MOTION_DDOT":0},{"OBJECT_NAME":"STARLINK-32518","OBJECT_ID":"2024-210J","EPOCH":"2025-08-26T22:39:43.497216","MEAN_MOTION":15.2760239,"ECCENTRICITY":0.0001107,"INCLINATION":43.0006,"RA_OF_ASC_NODE":192.7485,"ARG_OF_PERICENTER":276.9867,"MEAN_ANOMALY":83.0858,"EPHEMERIS_TYPE":0,"CLASSIFICATION_TYPE":"U","NORAD_CAT_ID":61967,"ELEMENT_SET_NO":999,"REV_AT_EPOCH":4507,"BSTAR":0.0012357929,"MEAN_MOTION_DOT":0.00033924,"MEAN_MOTION_DDOT":0},{"OBJECT_NAME":"STARLINK-32471","OBJECT_ID":"2024-210K","EPOCH":"2025-08-26T13:57:10.851840","MEAN_MOTION":15.27597522,"ECCENTRICITY":6.637e-5,"INCLINATION":42.9996,"RA_OF_ASC_NODE":194.5205,"ARG_OF_PERICENTER":265.2458,"MEAN_ANOMALY":94.8318,"EPHEMERIS_TYPE":0,"CLASSIFICATION_TYPE":"U","NORAD_CAT_ID":61968,"ELEMENT_SET_NO":999,"REV_AT_EPOCH":4516,"BSTAR":0.0012529661,"MEAN_MOTION_DOT":0.00034396,"MEAN_MOTION_DDOT":0},{"OBJECT_NAME":"STARLINK-32450","OBJECT_ID":"2024-210L","EPOCH":"2025-08-26T21:53:31.036992","MEAN_MOTION":15.27604084,"ECCENTRICITY":8.812e-5,"INCLINATION":42.9979,"RA_OF_ASC_NODE":192.7009,"ARG_OF_PERICENTER":63.456,"MEAN_ANOMALY":296.6382,"EPHEMERIS_TYPE":0,"CLASSIFICATION_TYPE":"U","NORAD_CAT_ID":61969,"ELEMENT_SET_NO":999,"REV_AT_EPOCH":4507,"BSTAR":0.00099137226,"MEAN_MOTION_DOT":0.00027139,"MEAN_MOTION_DDOT":0},{"OBJECT_NAME":"STARLINK-32613","OBJECT_ID":"2024-210M","EPOCH":"2025-08-26T15:00:32.965056","MEAN_MOTION":15.27595479,"ECCENTRICITY":0.00012952,"INCLINATION":43.0045,"RA_OF_ASC_NODE":201.7706,"ARG_OF_PERICENTER":298.1065,"MEAN_ANOMALY":61.9656,"EPHEMERIS_TYPE":0,"CLASSIFICATION_TYPE":"U","NORAD_CAT_ID":61970,"ELEMENT_SET_NO":999,"REV_AT_EPOCH":4508,"BSTAR":0.00093733638,"MEAN_MOTION_DOT":0.00025633,"MEAN_MOTION_DDOT":0},{"OBJECT_NAME":"STARLINK-32610","OBJECT_ID":"2024-210N","EPOCH":"2025-08-26T21:06:04.355712","MEAN_MOTION":15.27605013,"ECCENTRICITY":5.212e-5,"INCLINATION":43.0014,"RA_OF_ASC_NODE":200.235,"ARG_OF_PERICENTER":308.713,"MEAN_ANOMALY":51.3676,"EPHEMERIS_TYPE":0,"CLASSIFICATION_TYPE":"U","NORAD_CAT_ID":61971,"ELEMENT_SET_NO":999,"REV_AT_EPOCH":4512,"BSTAR":0.0011847545,"MEAN_MOTION_DOT":0.00032508,"MEAN_MOTION_DDOT":0}]
