STARLINK-32273          
1 61956U 24209T   25238.55988363  .00022850  00000+0  78126-3 0  9994
2 61956  53.1595 328.6188 0001294 108.6793 251.4348 15.30198893 45028
STARLINK-32359          
1 61957U 24209U   25238.51462117  .00016869  00000+0  58020-3 0  9999
2 61957  53.1617 329.0489 0001475  82.6634 277.4534 15.30210024 45036
STARLINK-32566          
1 61958U 24209V   25238.49140382  .00024975  00000+0  85224-3 0  9997
2 61958  53.1586 328.9065 0000901  97.1471 262.9632 15.30210693 45033
STARLINK-32499          
1 61959U 24210A   25238.96244786  .00024557  00000+0  89842-3 0  9991
2 61959  43.0037 199.1428 0001900 280.1692  79.8945 15.27598677 45144
STARLINK-32372          
1 61960U 24210B   25238.90476828  .00031148  00000+0  11359-2 0  9992
2 61960  42.9986 199.5661 0000824 277.3841  82.6916 15.27602254 44997
STARLINK-32452          
1 61961U 24210C   25238.91473240  .00027807  00000+0  10156-2 0  9990
2 61961  43.0028 192.7195 0000411  21.6759 338.4110 15.27597910 45209
STARLINK-32458          
1 61962U 24210D   25238.23613525  .00032550  00000+0  11864-2 0  9996
2 61962  43.0011 189.2990 0001340 272.6749  87.3949 15.27601286 45184
STARLINK-32487          
1 61963U 24210E   25238.93430388  .00004926  00000+0  18818-3 0  9991
2 61963  43.0019 199.7818 0001282 255.8802 104.1907 15.27622470 45120
STARLINK-32513          
1 61964U 24210F   25238.87843520  .00020002  00000+0  73412-3 0  9995
2 61964  42.9970 185.5198 0000846 263.8760  96.1995 15.27592671 45289
STARLINK-32514          
1 61965U 24210G   25238.91858838  .00031677  00000+0  11553-2 0  9996
2 61965  43.0023 192.7475 0000402 266.8617  93.2188 15.27592765 45209
STARLINK-32498          
1 61966U 24210H   25238.86430037  .00027447  00000+0  10026-2 0  9992
2 61966  42.9991 185.4128 0000463 220.6304 139.4513 15.27598367 45281
STARLINK-32518          
1 61967U 24210J   25238.94425344  .00033924  00000+0  12358-2 0  9994
2 61967  43.0006 192.7485 0001107 276.9867  83.0858 15.27602390 45077
STARLINK-32471          
1 61968U 24210K   25238.58137560  .00034396  00000+0  12530-2 0  9991
2 61968  42.9996 194.5205 0000663 265.2458  94.8318 15.27597522 45168
STARLINK-32450          
1 61969U 24210L   25238.91216478  .00027139  00000+0  99137-3 0  9991
2 61969  42.9979 192.7009 0000881  63.4560 296.6382 15.27604084 45071
STARLINK-32613          
1 61970U 24210M   25238.62538154  .00025633  00000+0  93734-3 0  9993
2 61970  43.0045 201.7706 0001295 298.1065  61.9656 15.27595479 45086
STARLINK-32610          
1 61971U 24210N   25238.87921708  .00032508  00000+0  11848-2 0  9996
2 61971  43.0014 200.2350 0000521 308.7130  51.3676 15.27605013 45120
